COSMOS 2413 (712)       
1 28509U 04053B   16035.05434012  .00000078  00000-0  00000+0 0  9994
2 28509  63.1325 194.8740 0005504 163.0743  28.1396  2.13101810 86445
COSMOS 2419 (714)       
1 28915U 05050A   16035.47858420  .00000014  00000-0  00000+0 0  9992
2 28915  65.2618  82.6801 0015574 345.1042 171.6562  2.13111838 78709
COSMOS 2425 (716)       
1 29670U 06062A   16035.46890010 -.00000044  00000-0  10000-3 0  9994
2 29670  65.6892 321.6490 0023378 343.4959 227.1091  2.13104954 70904
COSMOS 2426 (717)       
1 29671U 06062B   16035.07403957 -.00000046  00000-0  10000-3 0  9994
2 29671  65.7065 321.7408 0015044 168.5336 321.0127  2.13103049 70902
COSMOS 2424 (715)       
1 29672U 06062C   16035.03634152 -.00000046  00000-0  10000-3 0  9994
2 29672  65.6916 321.6732 0014455 167.6614 109.6558  2.13102043 70899
COSMOS 2433 (720)       
1 32275U 07052A   16035.47514969  .00000014  00000-0  10000-3 0  9992
2 32275  65.2771  82.4481 0004368 263.2214 144.0187  2.13105026 64428
COSMOS 2432 (719)       
1 32276U 07052B   16035.07420404  .00000010  00000-0  10000-3 0  9995
2 32276  65.2890  82.5254 0012325 329.5732  84.1896  2.13104235 64414
COSMOS 2434 (721)       
1 32393U 07065A   16034.48513102 -.00000048  00000-0  00000+0 0  9998
2 32393  65.3096 321.0695 0002367  82.6570 178.1852  2.13102722 63105
COSMOS 2436 (723)       
1 32395U 07065C   16035.45886733 -.00000044  00000-0  10000-3 0  9992
2 32395  65.3220 321.0766 0018757 350.2658  29.5871  2.13102822 63062
COSMOS 2443 (725)       
1 33379U 08046B   16035.15756995  .00000011  00000-0  10000-3 0  9991
2 33379  65.2056  81.8888 0018352 190.5137 239.8206  2.13101484 57283
COSMOS 2456 (730)       
1 36111U 09070A   16035.07502772  .00000089  00000-0  00000+0 0  9999
2 36111  64.1869 200.6590 0003539 351.3301 170.9642  2.13102887 47783
COSMOS 2457 (733)       
1 36112U 09070B   16035.32130083  .00000088  00000-0  00000+0 0  9999
2 36112  64.1688 200.5804 0007448 145.7551 336.3696  2.13101543 47791
COSMOS 2458 (734)       
1 36113U 09070C   16034.95166941  .00000090  00000-0  10000-3 0  9998
2 36113  64.1740 200.5981 0003187  60.9098 184.9218  2.13101960 47786
COSMOS 2459 (731)       
1 36400U 10007A   16035.32653560  .00000013  00000-0  10000-3 0  9994
2 36400  65.1843  81.6212 0028432 349.4988 170.2549  2.13102354 46140
COSMOS 2461 (735)       
1 36401U 10007B   16034.51857679  .00000005  00000-0  10000-3 0  9993
2 36401  65.1767  81.6313 0004319  68.3445 102.1161  2.13102265 46124
COSMOS 2460 (732)       
1 36402U 10007C   16034.74663597  .00000007  00000-0  10000-3 0  9995
2 36402  65.1674  81.6022 0001754 261.4667 126.0478  2.13101957 46135
COSMOS 2466 (738)       
1 37137U 10041A   16034.89725044 -.00000047  00000-0  10000-3 0  9996
2 37137  64.8927 321.2256 0018335 155.2057 285.4030  2.13102267 42210
COSMOS 2465 (737)       
1 37138U 10041B   16035.37555983 -.00000045  00000-0  00000+0 0  9997
2 37138  64.9095 321.2794 0032889 169.7304 100.3872  2.13102739 42213
COSMOS 2464 (736)       
1 37139U 10041C   16035.45488551 -.00000045  00000-0  00000+0 0  9993
2 37139  64.9113 321.2692 0023267  10.3024  95.2645  2.13102918 42222
COSMOS 2471 (701K)      
1 37372U 11009A   16035.41385167  .00000014  00000-0  00000+0 0  9997
2 37372  65.1652  81.5307 0009045 238.7541  72.7721  2.13102973 38411
COSMOS 2474 (742)       
1 37829U 11055A   16035.35840002  .00000089  00000-0  00000+0 0  9994
2 37829  64.5112 201.0062 0005531 248.3246 353.3637  2.13101886 33785
COSMOS 2476 (744)       
1 37867U 11064A   16035.47815663  .00000088  00000-0  00000+0 0  9993
2 37867  64.4911 201.0869 0014400 245.0639 134.2700  2.13101996 33142
COSMOS 2477 (745)       
1 37868U 11064B   16035.21894343 -.00000046  00000-0  10000-3 0  9998
2 37868  64.5003 201.1344 0012514 246.2433 113.6295  2.13104561 33099
COSMOS 2475 (743)       
1 37869U 11064C   16035.27611314  .00000000  00000-0  10000-3 0  9999
2 37869  64.5075 201.1190 0018125 278.2926  81.5057  2.13104764 33100
COSMOS 2478 (746)       
1 37938U 11071A   16034.45794478  .00000004  00000-0  00000+0 0  9995
2 37938  65.1909  81.7820 0014621 241.1646 176.8647  2.13088485 32694
COSMOS 2485 (747)       
1 39155U 13019A   16035.45994785  .00000088  00000-0  00000+0 0  9998
2 39155  64.6602 201.0085 0014719 238.8048 171.7496  2.13102030 21617
COSMOS 2492 (754)       
1 39620U 14012A   16034.08603459 -.00000000  00000-0  10000-3 0  9992
2 39620  65.0559  81.6315 0016290 327.0716 142.2356  2.13103679 14538
COSMOS 2500 (755)       
1 40001U 14032A   16035.16205159  .00000011  00000-0  00000+0 0  9990
2 40001  64.9967  81.6292 0007219 217.4528 221.3167  2.13102953 12779
COSMOS 2501 (702K)      
1 40315U 14075A   16035.45488448 -.00000046  00000-0  00000+0 0  9990
2 40315  64.6797 322.7683 0017502 240.9894 224.3432  2.13101442  9182
